{
  "type": "FeatureCollection",
  "features": [
    {
      "type": "Feature",
      "properties": {
        "norad_id": 66997,
        "name": "2025-292E",
        "group": "last-30-days",
        "lat": -21.535247975908895,
        "lon": -112.11666819048979,
        "alt_km": 549.3958310175922,
        "timestamp": "2025-12-24T11:32:58.721270+00:00",
        "meta_object_name": "2025-292E",
        "meta_object_id": "2025-292E",
        "meta_epoch": "2025-12-24T02:40:32.564064",
        "meta_mean_motion": 15.04758949,
        "meta_eccentricity": 0.0014054,
        "meta_inclination": 97.6516,
        "meta_ra_of_asc_node": 70.5582,
        "meta_arg_of_pericenter": 235.3581,
        "meta_mean_anomaly": 124.6321,
        "meta_ephemeris_type": 0,
        "meta_classification_type": "U",
        "meta_norad_cat_id": 66997,
        "meta_element_set_no": 999,
        "meta_rev_at_epoch": 209,
        "meta_bstar": 0.00031126,
        "meta_mean_motion_dot": 4.335e-05,
        "meta_mean_motion_ddot": 0,
        "tle_line1": "1 66997U 25292E   25358.11148801  .00004335  00000+0  31126-3 0  9994",
        "tle_line2": "2 66997  97.6516  70.5582 0014054 235.3581 124.6321 15.04758949  2093"
      },
      "geometry": {
        "type": "Point",
        "coordinates": [
          -112.11666819048979,
          -21.535247975908895
        ]
      }
    },
    {
      "type": "Feature",
      "properties": {
        "norad_id": 66998,
        "name": "2025-292F",
        "group": "last-30-days",
        "lat": -29.80674212133791,
        "lon": -113.48681421791804,
        "alt_km": 548.1399394077698,
        "timestamp": "2025-12-24T11:32:58.721282+00:00",
        "meta_object_name": "2025-292F",
        "meta_object_id": "2025-292F",
        "meta_epoch": "2025-12-24T04:14:07.516896",
        "meta_mean_motion": 15.04938769,
        "meta_eccentricity": 0.0015188,
        "meta_inclination": 97.6534,
        "meta_ra_of_asc_node": 70.6292,
        "meta_arg_of_pericenter": 236.0561,
        "meta_mean_anomaly": 123.9222,
        "meta_ephemeris_type": 0,
        "meta_classification_type": "U",
        "meta_norad_cat_id": 66998,
        "meta_element_set_no": 999,
        "meta_rev_at_epoch": 211,
        "meta_bstar": 0.0004129,
        "meta_mean_motion_dot": 5.803e-05,
        "meta_mean_motion_ddot": 0,
        "tle_line1": "1 66998U 25292F   25358.17647589  .00005803  00000+0  41290-3 0  9992",
        "tle_line2": "2 66998  97.6534  70.6292 0015188 236.0561 123.9222 15.04938769  2113"
      },
      "geometry": {
        "type": "Point",
        "coordinates": [
          -113.48681421791804,
          -29.80674212133791
        ]
      }
    },
    {
      "type": "Feature",
      "properties": {
        "norad_id": 66999,
        "name": "2025-292G",
        "group": "last-30-days",
        "lat": -33.03540515121451,
        "lon": -114.08311626993411,
        "alt_km": 548.3548187713595,
        "timestamp": "2025-12-24T11:32:58.721292+00:00",
        "meta_object_name": "2025-292G",
        "meta_object_id": "2025-292G",
        "meta_epoch": "2025-12-24T04:13:16.532256",
        "meta_mean_motion": 15.05002508,
        "meta_eccentricity": 0.0014704,
        "meta_inclination": 97.6543,
        "meta_ra_of_asc_node": 70.6314,
        "meta_arg_of_pericenter": 238.0358,
        "meta_mean_anomaly": 121.9439,
        "meta_ephemeris_type": 0,
        "meta_classification_type": "U",
        "meta_norad_cat_id": 66999,
        "meta_element_set_no": 999,
        "meta_rev_at_epoch": 211,
        "meta_bstar": 0.00041062,
        "meta_mean_motion_dot": 5.779e-05,
        "meta_mean_motion_ddot": 0,
        "tle_line1": "1 66999U 25292G   25358.17588579  .00005779  00000+0  41062-3 0  9995",
        "tle_line2": "2 66999  97.6543  70.6314 0014704 238.0358 121.9439 15.05002508  2110"
      },
      "geometry": {
        "type": "Point",
        "coordinates": [
          -114.08311626993411,
          -33.03540515121451
        ]
      }
    },
    {
      "type": "Feature",
      "properties": {
        "norad_id": 67000,
        "name": "2025-292H",
        "group": "last-30-days",
        "lat": -33.58249141127299,
        "lon": -114.18739121692714,
        "alt_km": 548.312895274079,
        "timestamp": "2025-12-24T11:32:58.721302+00:00",
        "meta_object_name": "2025-292H",
        "meta_object_id": "2025-292H",
        "meta_epoch": "2025-12-23T10:40:00.051456",
        "meta_mean_motion": 15.05018797,
        "meta_eccentricity": 0.00146077,
        "meta_inclination": 97.656,
        "meta_ra_of_asc_node": 69.9088,
        "meta_arg_of_pericenter": 240.3187,
        "meta_mean_anomaly": 119.6586,
        "meta_ephemeris_type": 0,
        "meta_classification_type": "U",
        "meta_norad_cat_id": 67000,
        "meta_element_set_no": 999,
        "meta_rev_at_epoch": 187,
        "meta_bstar": 0.00048749266,
        "meta_mean_motion_dot": 6.877e-05,
        "meta_mean_motion_ddot": 0,
        "tle_line1": "1 67000U 25292H   25357.44444504  .00006877  00000+0  48749-3 0  9996",
        "tle_line2": "2 67000  97.6560  69.9088 0014607 240.3187 119.6586 15.05018797  1876"
      },
      "geometry": {
        "type": "Point",
        "coordinates": [
          -114.18739121692714,
          -33.58249141127299
        ]
      }
    },
    {
      "type": "Feature",
      "properties": {
        "norad_id": 67001,
        "name": "2025-292J",
        "group": "last-30-days",
        "lat": -3.2569536748769656,
        "lon": -109.5184238561875,
        "alt_km": 549.1720320746153,
        "timestamp": "2025-12-24T11:32:58.721311+00:00",
        "meta_object_name": "2025-292J",
        "meta_object_id": "2025-292J",
        "meta_epoch": "2025-12-24T02:45:19.638432",
        "meta_mean_motion": 15.04418813,
        "meta_eccentricity": 0.0014888,
        "meta_inclination": 97.6536,
        "meta_ra_of_asc_node": 70.5572,
        "meta_arg_of_pericenter": 227.188,
        "meta_mean_anomaly": 132.8095,
        "meta_ephemeris_type": 0,
        "meta_classification_type": "U",
        "meta_norad_cat_id": 67001,
        "meta_element_set_no": 999,
        "meta_rev_at_epoch": 210,
        "meta_bstar": 0.00040344,
        "meta_mean_motion_dot": 5.589e-05,
        "meta_mean_motion_ddot": 0,
        "tle_line1": "1 67001U 25292J   25358.11481063  .00005589  00000+0  40344-3 0  9995",
        "tle_line2": "2 67001  97.6536  70.5572 0014888 227.1880 132.8095 15.04418813  2101"
      },
      "geometry": {
        "type": "Point",
        "coordinates": [
          -109.5184238561875,
          -3.2569536748769656
        ]
      }
    },
    {
      "type": "Feature",
      "properties": {
        "norad_id": 67002,
        "name": "ZK-1A R/B",
        "group": "last-30-days",
        "lat": -41.799297762008685,
        "lon": 79.19551957522273,
        "alt_km": 259.7187726483626,
        "timestamp": "2025-12-24T11:32:58.721322+00:00",
        "meta_object_name": "ZK-1A R/B",
        "meta_object_id": "2025-292K",
        "meta_epoch": "2025-12-24T04:01:05.009376",
        "meta_mean_motion": 15.5822502,
        "meta_eccentricity": 0.0206935,
        "meta_inclination": 97.7202,
        "meta_ra_of_asc_node": 71.8883,
        "meta_arg_of_pericenter": 323.8033,
        "meta_mean_anomaly": 34.9362,
        "meta_ephemeris_type": 0,
        "meta_classification_type": "U",
        "meta_norad_cat_id": 67002,
        "meta_element_set_no": 999,
        "meta_rev_at_epoch": 217,
        "meta_bstar": 0.00072425,
        "meta_mean_motion_dot": 0.00155387,
        "meta_mean_motion_ddot": 8.6591e-06,
        "tle_line1": "1 67002U 25292K   25358.16741909  .00155387  86591-5  72425-3 0  9991",
        "tle_line2": "2 67002  97.7202  71.8883 0206935 323.8033  34.9362 15.58225020  2173"
      },
      "geometry": {
        "type": "Point",
        "coordinates": [
          79.19551957522273,
          -41.799297762008685
        ]
      }
    },
    {
      "type": "Feature",
      "properties": {
        "norad_id": 67003,
        "name": "STARLINK-35660",
        "group": "last-30-days",
        "lat": -63.52851556236056,
        "lon": 156.81808754667523,
        "alt_km": 333.71105962750244,
        "timestamp": "2025-12-24T11:32:58.721332+00:00",
        "meta_object_name": "STARLINK-35660",
        "meta_object_id": "2025-293A",
        "meta_epoch": "2025-12-24T04:00:01.998720",
        "meta_mean_motion": 15.81528322,
        "meta_eccentricity": 0.0003572,
        "meta_inclination": 69.9931,
        "meta_ra_of_asc_node": 290.6849,
        "meta_arg_of_pericenter": 273.0924,
        "meta_mean_anomaly": 349.5099,
        "meta_ephemeris_type": 0,
        "meta_classification_type": "U",
        "meta_norad_cat_id": 67003,
        "meta_element_set_no": 999,
        "meta_rev_at_epoch": 200,
        "meta_bstar": -0.0090546,
        "meta_mean_motion_dot": -0.01585394,
        "meta_mean_motion_ddot": 0,
        "tle_line1": "1 67003U 25293A   25358.16668980 -.01585394  00000+0 -90546-2 0  9996",
        "tle_line2": "2 67003  69.9931 290.6849 0003572 273.0924 349.5099 15.81528322  2005"
      },
      "geometry": {
        "type": "Point",
        "coordinates": [
          156.81808754667523,
          -63.52851556236056
        ]
      }
    }
  ]
}